[{"OBJECT_NAME":"TIANQI-28","OBJECT_ID":"2024-102D","EPOCH":"2026-03-09T22:51:16.709472","MEAN_MOTION":13.99129757,"ECCENTRICITY":0.00101507,"INCLINATION":44.9805,"RA_OF_ASC_NODE":343.2234,"ARG_OF_PERICENTER":142.3431,"MEAN_ANOMALY":217.8114,"EPHEMERIS_TYPE":0,"CLASSIFICATION_TYPE":"U","NORAD_CAT_ID":59912,"ELEMENT_SET_NO":999,"REV_AT_EPOCH":9100,"BSTAR":0.00025291136,"MEAN_MOTION_DOT":2.4e-6,"MEAN_MOTION_DDOT":0},{"OBJECT_NAME":"FENGYUN 1C DEB","OBJECT_ID":"1999-025AAS","EPOCH":"2026-03-09T13:31:59.789280","MEAN_MOTION":13.97962522,"ECCENTRICITY":0.00976363,"INCLINATION":98.9451,"RA_OF_ASC_NODE":105.9859,"ARG_OF_PERICENTER":127.7265,"MEAN_ANOMALY":26.5868,"EPHEMERIS_TYPE":0,"CLASSIFICATION_TYPE":"U","NORAD_CAT_ID":30331,"ELEMENT_SET_NO":999,"REV_AT_EPOCH":97332,"BSTAR":0.00073256872,"MEAN_MOTION_DOT":1.04e-5,"MEAN_MOTION_DDOT":0}]
